[{"OBJECT_NAME":"STARLINK-5125","OBJECT_ID":"2022-125AG","EPOCH":"2026-03-09T16:27:24.129216","MEAN_MOTION":15.08835632,"ECCENTRICITY":0.00012386,"INCLINATION":53.2168,"RA_OF_ASC_NODE":214.0157,"ARG_OF_PERICENTER":90.5276,"MEAN_ANOMALY":269.5858,"EPHEMERIS_TYPE":0,"CLASSIFICATION_TYPE":"U","NORAD_CAT_ID":53994,"ELEMENT_SET_NO":999,"REV_AT_EPOCH":18946,"BSTAR":-1.1112167e-5,"MEAN_MOTION_DOT":-4.65e-6,"MEAN_MOTION_DDOT":0},{"OBJECT_NAME":"H-2A R\/B","OBJECT_ID":"2025-141B","EPOCH":"2026-03-09T20:50:08.593728","MEAN_MOTION":14.90469893,"ECCENTRICITY":0.00923902,"INCLINATION":98.076,"RA_OF_ASC_NODE":17.3096,"ARG_OF_PERICENTER":151.0716,"MEAN_ANOMALY":209.5668,"EPHEMERIS_TYPE":0,"CLASSIFICATION_TYPE":"U","NORAD_CAT_ID":64695,"ELEMENT_SET_NO":999,"REV_AT_EPOCH":3783,"BSTAR":0.00033350933,"MEAN_MOTION_DOT":3.464e-5,"MEAN_MOTION_DDOT":0}]
